[{"OBJECT_NAME":"STARLINK-2494","OBJECT_ID":"2021-040BM","EPOCH":"2026-03-09T15:52:46.220448","MEAN_MOTION":15.30208187,"ECCENTRICITY":0.00014118,"INCLINATION":53.162,"RA_OF_ASC_NODE":194.1526,"ARG_OF_PERICENTER":74.5162,"MEAN_ANOMALY":285.5994,"EPHEMERIS_TYPE":0,"CLASSIFICATION_TYPE":"U","NORAD_CAT_ID":48487,"ELEMENT_SET_NO":999,"REV_AT_EPOCH":26646,"BSTAR":0.00040475051,"MEAN_MOTION_DOT":0.0001165,"MEAN_MOTION_DDOT":0},{"OBJECT_NAME":"PHISAT 2","OBJECT_ID":"2024-149C","EPOCH":"2026-03-09T18:55:12.732384","MEAN_MOTION":15.29548632,"ECCENTRICITY":0.00011753,"INCLINATION":97.3806,"RA_OF_ASC_NODE":148.6498,"ARG_OF_PERICENTER":168.623,"MEAN_ANOMALY":191.5037,"EPHEMERIS_TYPE":0,"CLASSIFICATION_TYPE":"U","NORAD_CAT_ID":60470,"ELEMENT_SET_NO":999,"REV_AT_EPOCH":8679,"BSTAR":0.00031420974,"MEAN_MOTION_DOT":8.925e-5,"MEAN_MOTION_DDOT":0}]
